ADRAS-J                 
1 58992U 24034A   24087.17592098  .00007110  00000+0  68763-3 0  9999
2 58992  98.2052  56.5689 0043402 320.1994  39.6042 14.92406131  5629
